[{"OBJECT_NAME":"STARLINK-31937","OBJECT_ID":"2024-098P","EPOCH":"2026-03-09T12:57:36.811296","MEAN_MOTION":15.27569362,"ECCENTRICITY":9.63e-5,"INCLINATION":43.0016,"RA_OF_ASC_NODE":271.8857,"ARG_OF_PERICENTER":267.4431,"MEAN_ANOMALY":92.631,"EPHEMERIS_TYPE":0,"CLASSIFICATION_TYPE":"U","NORAD_CAT_ID":59871,"ELEMENT_SET_NO":999,"REV_AT_EPOCH":10190,"BSTAR":-3.6278693e-5,"MEAN_MOTION_DOT":-1.26e-5,"MEAN_MOTION_DDOT":0},{"OBJECT_NAME":"CZ-6A DEB","OBJECT_ID":"2022-151ADD","EPOCH":"2026-03-09T18:20:47.462208","MEAN_MOTION":15.20298953,"ECCENTRICITY":0.00285544,"INCLINATION":98.6309,"RA_OF_ASC_NODE":152.6578,"ARG_OF_PERICENTER":173.2603,"MEAN_ANOMALY":186.9019,"EPHEMERIS_TYPE":0,"CLASSIFICATION_TYPE":"U","NORAD_CAT_ID":56285,"ELEMENT_SET_NO":999,"REV_AT_EPOCH":17182,"BSTAR":0.0066325049,"MEAN_MOTION_DOT":0.00148374,"MEAN_MOTION_DDOT":0}]
